start=new Date('2022-09-28T00:00:00.000Z').valueOf();
sats=[{"FILE":"3585280","REV_AT_EPOCH":"7532","APOAPSIS":"548.171","SEMIMAJOR_AXIS":"6925.332","RCS_SIZE":"MEDIUM","INCLINATION":"53.0565","CLASSIFICATION_TYPE":"U","LAUNCH_DATE":"2021-05-15","ARG_OF_PERICENTER":"61.3966","OBJECT_TYPE":"PAYLOAD","TIME_SYSTEM":"UTC","OBJECT_NAME":"STARLINK-2214","EPHEMERIS_TYPE":"0","OBJECT_ID":"2021-041P","MEAN_ELEMENT_THEORY":"SGP4","DECAY_DATE":null,"ELEMENT_SET_NO":"999","CENTER_NAME":"EARTH","MEAN_ANOMALY":"298.7164","REF_FRAME":"TEME","PERIOD":"95.592","MEAN_MOTION_DOT":"0.00004177","BSTAR":"0.00029910000000","COUNTRY_CODE":"US","MEAN_MOTION":"15.06405391","NORAD_CAT_ID":"48566","GP_ID":"213666571","EPOCH":"2022-09-27T20:16:22.449792","SITE":"AFETR","TLE_LINE2":"2 48566  53.0565  32.7652 0001406  61.3966 298.7164 15.06405391 75320","TLE_LINE1":"1 48566U 21041P   22270.84470428  .00004177  00000-0  29910-3 0  9990","RA_OF_ASC_NODE":"32.7652","ECCENTRICITY":"0.00014060","MEAN_MOTION_DDOT":"0.0000000000000","PERIAPSIS":"546.223"},{"DECAY_DATE":null,"MEAN_ELEMENT_THEORY":"SGP4","TIME_SYSTEM":"UTC","OBJECT_TYPE":"PAYLOAD","ARG_OF_PERICENTER":"70.7172","OBJECT_NAME":"STARLINK-2215","EPHEMERIS_TYPE":"0","OBJECT_ID":"2021-041Q","CLASSIFICATION_TYPE":"U","LAUNCH_DATE":"2021-05-15","FILE":"3584345","SEMIMAJOR_AXIS":"6925.347","APOAPSIS":"548.088","REV_AT_EPOCH":"7505","INCLINATION":"53.0557","RCS_SIZE":"LARGE","TLE_LINE2":"2 48567  53.0557  40.7764 0001265  70.7172 289.3954 15.06400369 75054","TLE_LINE1":"1 48567U 21041Q   22269.06809349  .00000771  00000-0  70639-4 0  9992","ECCENTRICITY":"0.00012650","RA_OF_ASC_NODE":"40.7764","PERIAPSIS":"546.336","MEAN_MOTION_DDOT":"0.0000000000000","NORAD_CAT_ID":"48567","SITE":"AFETR","GP_ID":"213543382","EPOCH":"2022-09-26T01:38:03.277536","COUNTRY_CODE":"US","MEAN_MOTION":"15.06400369","ELEMENT_SET_NO":"999","REF_FRAME":"TEME","MEAN_ANOMALY":"289.3954","CENTER_NAME":"EARTH","MEAN_MOTION_DOT":"0.00000771","BSTAR":"0.00007063900000","PERIOD":"95.592"},{"SITE":"AFETR","GP_ID":"213665576","EPOCH":"2022-09-27T16:08:16.003680","NORAD_CAT_ID":"48568","RA_OF_ASC_NODE":"23.5673","ECCENTRICITY":"0.00014080","PERIAPSIS":"546.252","MEAN_MOTION_DDOT":"0.0000000000000","TLE_LINE2":"2 48568  53.0558  23.5673 0001408  80.4779 279.6369 15.06395705 75435","TLE_LINE1":"1 48568U 21041R   22270.67240745  .00005186  00000-0  36686-3 0  9999","MEAN_MOTION_DOT":"0.00005186","BSTAR":"0.00036686000000","PERIOD":"95.592","ELEMENT_SET_NO":"999","REF_FRAME":"TEME","MEAN_ANOMALY":"279.6369","CENTER_NAME":"EARTH","MEAN_MOTION":"15.06395705","COUNTRY_CODE":"US","OBJECT_ID":"2021-041R","EPHEMERIS_TYPE":"0","TIME_SYSTEM":"UTC","OBJECT_TYPE":"PAYLOAD","ARG_OF_PERICENTER":"80.4779","OBJECT_NAME":"STARLINK-2217","DECAY_DATE":null,"MEAN_ELEMENT_THEORY":"SGP4","APOAPSIS":"548.202","SEMIMAJOR_AXIS":"6925.362","REV_AT_EPOCH":"7543","RCS_SIZE":"LARGE","INCLINATION":"53.0558","FILE":"3585280","LAUNCH_DATE":"2021-05-15","CLASSIFICATION_TYPE":"U"},{"TLE_LINE2":"2 48569  53.0555  22.8515 0001376  78.4555 281.6588 15.06401702 75861","TLE_LINE1":"1 48569U 21041S   22270.83089524  .00001753  00000-0  13652-3 0  9998","ECCENTRICITY":"0.00013760","RA_OF_ASC_NODE":"22.8515","MEAN_MOTION_DDOT":"0.0000000000000","PERIAPSIS":"546.255","NORAD_CAT_ID":"48569","SITE":"AFETR","EPOCH":"2022-09-27T19:56:29.348736","GP_ID":"213642448","COUNTRY_CODE":"US","MEAN_MOTION":"15.06401702","ELEMENT_SET_NO":"999","REF_FRAME":"TEME","MEAN_ANOMALY":"281.6588","CENTER_NAME":"EARTH","MEAN_MOTION_DOT":"0.00001753","BSTAR":"0.00013652000000","PERIOD":"95.592","DECAY_DATE":null,"MEAN_ELEMENT_THEORY":"SGP4","TIME_SYSTEM":"UTC","OBJECT_TYPE":"PAYLOAD","ARG_OF_PERICENTER":"78.4555","OBJECT_NAME":"STARLINK-2219","EPHEMERIS_TYPE":"0","OBJECT_ID":"2021-041S","CLASSIFICATION_TYPE":"U","LAUNCH_DATE":"2021-05-15","FILE":"3585202","SEMIMAJOR_AXIS":"6925.343","APOAPSIS":"548.161","REV_AT_EPOCH":"7586","INCLINATION":"53.0555","RCS_SIZE":"LARGE"},{"PERIAPSIS":"546.061","MEAN_MOTION_DDOT":"0.0000000000000","ECCENTRICITY":"0.00016120","RA_OF_ASC_NODE":"33.2200","TLE_LINE1":"1 48570U 21041T   22270.75256492 -.00003411  00000-0 -21010-3 0  9993","TLE_LINE2":"2 48570  53.0562  33.2200 0001612  90.0449 270.0725 15.06411959 75302","SITE":"AFETR","GP_ID":"213666072","EPOCH":"2022-09-27T18:03:41.609088","NORAD_CAT_ID":"48570","MEAN_MOTION":"15.06411959","COUNTRY_CODE":"US","MEAN_MOTION_DOT":"-0.00003411","BSTAR":"-0.00021010000000","PERIOD":"95.591","REF_FRAME":"TEME","MEAN_ANOMALY":"270.0725","CENTER_NAME":"EARTH","ELEMENT_SET_NO":"999","DECAY_DATE":null,"MEAN_ELEMENT_THEORY":"SGP4","OBJECT_ID":"2021-041T","EPHEMERIS_TYPE":"0","OBJECT_NAME":"STARLINK-2220","OBJECT_TYPE":"PAYLOAD","TIME_SYSTEM":"UTC","ARG_OF_PERICENTER":"90.0449","LAUNCH_DATE":"2021-05-15","CLASSIFICATION_TYPE":"U","RCS_SIZE":"LARGE","INCLINATION":"53.0562","APOAPSIS":"548.293","SEMIMAJOR_AXIS":"6925.312","REV_AT_EPOCH":"7530","FILE":"3585280"},{"PERIOD":"95.593","BSTAR":"-0.00000776160000","MEAN_MOTION_DOT":"-0.00000397","MEAN_ANOMALY":"290.8943","CENTER_NAME":"EARTH","REF_FRAME":"TEME","ELEMENT_SET_NO":"999","MEAN_MOTION":"15.06389853","COUNTRY_CODE":"US","GP_ID":"213665326","EPOCH":"2022-09-27T19:49:51.871584","SITE":"AFETR","NORAD_CAT_ID":"48571","PERIAPSIS":"546.305","MEAN_MOTION_DDOT":"0.0000000000000","ECCENTRICITY":"0.00013570","RA_OF_ASC_NODE":"32.8895","TLE_LINE1":"1 48571U 21041U   22270.82629481 -.00000397  00000-0 -77616-5 0  9999","TLE_LINE2":"2 48571  53.0561  32.8895 0001357  69.2191 290.8943 15.06389853 75326","INCLINATION":"53.0561","RCS_SIZE":"LARGE","REV_AT_EPOCH":"7532","APOAPSIS":"548.184","SEMIMAJOR_AXIS":"6925.380","FILE":"3585280","LAUNCH_DATE":"2021-05-15","CLASSIFICATION_TYPE":"U","EPHEMERIS_TYPE":"0","OBJECT_ID":"2021-041U","OBJECT_NAME":"STARLINK-2221","ARG_OF_PERICENTER":"69.2191","TIME_SYSTEM":"UTC","OBJECT_TYPE":"PAYLOAD","DECAY_DATE":null,"MEAN_ELEMENT_THEORY":"SGP4"},{"RCS_SIZE":"LARGE","INCLINATION":"53.0558","SEMIMAJOR_AXIS":"6925.334","APOAPSIS":"548.166","REV_AT_EPOCH":"7532","FILE":"3585280","LAUNCH_DATE":"2021-05-15","CLASSIFICATION_TYPE":"U","EPHEMERIS_TYPE":"0","OBJECT_ID":"2021-041V","OBJECT_NAME":"STARLINK-2222","TIME_SYSTEM":"UTC","OBJECT_TYPE":"PAYLOAD","ARG_OF_PERICENTER":"125.0179","DECAY_DATE":null,"MEAN_ELEMENT_THEORY":"SGP4","BSTAR":"0.00002322100000","MEAN_MOTION_DOT":"0.00000064","PERIOD":"95.592","REF_FRAME":"TEME","CENTER_NAME":"EARTH","MEAN_ANOMALY":"235.0942","ELEMENT_SET_NO":"999","MEAN_MOTION":"15.06404657","COUNTRY_CODE":"US","SITE":"AFETR","EPOCH":"2022-09-27T19:44:32.537184","GP_ID":"213665077","NORAD_CAT_ID":"48572","MEAN_MOTION_DDOT":"0.0000000000000","PERIAPSIS":"546.233","RA_OF_ASC_NODE":"32.8926","ECCENTRICITY":"0.00013960","TLE_LINE1":"1 48572U 21041V   22270.82259881  .00000064  00000-0  23221-4 0  9994","TLE_LINE2":"2 48572  53.0558  32.8926 0001396 125.0179 235.0942 15.06404657 75328"},{"MEAN_MOTION_DDOT":"0.0000000000000","PERIAPSIS":"546.169","RA_OF_ASC_NODE":"24.4692","ECCENTRICITY":"0.00015230","TLE_LINE1":"1 48573U 21041W   22270.46967129  .00000459  00000-0  49685-4 0  9996","TLE_LINE2":"2 48573  53.0571  24.4692 0001523  69.9461 290.1692 15.06396557 75854","SITE":"AFETR","GP_ID":"213611989","EPOCH":"2022-09-27T11:16:19.599456","NORAD_CAT_ID":"48573","MEAN_MOTION":"15.06396557","COUNTRY_CODE":"US","MEAN_MOTION_DOT":"0.00000459","BSTAR":"0.00004968500000","PERIOD":"95.592","REF_FRAME":"TEME","MEAN_ANOMALY":"290.1692","CENTER_NAME":"EARTH","ELEMENT_SET_NO":"999","DECAY_DATE":null,"MEAN_ELEMENT_THEORY":"SGP4","EPHEMERIS_TYPE":"0","OBJECT_ID":"2021-041W","OBJECT_NAME":"STARLINK-2224","TIME_SYSTEM":"UTC","OBJECT_TYPE":"PAYLOAD","ARG_OF_PERICENTER":"69.9461","LAUNCH_DATE":"2021-05-15","CLASSIFICATION_TYPE":"U","RCS_SIZE":"LARGE","INCLINATION":"53.0571","SEMIMAJOR_AXIS":"6925.359","APOAPSIS":"548.279","REV_AT_EPOCH":"7585","FILE":"3584996"},{"DECAY_DATE":null,"MEAN_ELEMENT_THEORY":"SGP4","OBJECT_NAME":"STARLINK-2225","TIME_SYSTEM":"UTC","OBJECT_TYPE":"PAYLOAD","ARG_OF_PERICENTER":"52.0721","EPHEMERIS_TYPE":"0","OBJECT_ID":"2021-041X","CLASSIFICATION_TYPE":"U","LAUNCH_DATE":"2021-05-15","FILE":"3585280","INCLINATION":"53.0579","RCS_SIZE":"LARGE","APOAPSIS":"548.296","SEMIMAJOR_AXIS":"6925.201","REV_AT_EPOCH":"7584","TLE_LINE1":"1 48574U 21041X   22270.57195171 -.00006672  00000-0 -42885-3 0  9998","TLE_LINE2":"2 48574  53.0579 354.1063 0001777  52.0721 308.0428 15.06448263 75848","PERIAPSIS":"545.835","MEAN_MOTION_DDOT":"0.0000000000000","ECCENTRICITY":"0.00017770","RA_OF_ASC_NODE":"354.1063","NORAD_CAT_ID":"48574","SITE":"AFETR","EPOCH":"2022-09-27T13:43:36.627744","GP_ID":"213666572","COUNTRY_CODE":"US","MEAN_MOTION":"15.06448263","REF_FRAME":"TEME","CENTER_NAME":"EARTH","MEAN_ANOMALY":"308.0428","ELEMENT_SET_NO":"999","BSTAR":"-0.00042885000000","MEAN_MOTION_DOT":"-0.00006672","PERIOD":"95.589"},{"INCLINATION":"53.0552","RCS_SIZE":"LARGE","REV_AT_EPOCH":"7643","APOAPSIS":"548.296","SEMIMAJOR_AXIS":"6925.354","FILE":"3584996","LAUNCH_DATE":"2021-05-15","CLASSIFICATION_TYPE":"U","OBJECT_ID":"2021-041Y","EPHEMERIS_TYPE":"0","OBJECT_NAME":"STARLINK-2227","ARG_OF_PERICENTER":"67.5973","TIME_SYSTEM":"UTC","OBJECT_TYPE":"PAYLOAD","DECAY_DATE":null,"MEAN_ELEMENT_THEORY":"SGP4","PERIOD":"95.592","MEAN_MOTION_DOT":"0.00001405","BSTAR":"0.00011320000000","MEAN_ANOMALY":"292.5180","CENTER_NAME":"EARTH","REF_FRAME":"TEME","ELEMENT_SET_NO":"999","MEAN_MOTION":"15.06398067","COUNTRY_CODE":"US","EPOCH":"2022-09-27T12:30:40.747680","GP_ID":"213612489","SITE":"AFETR","NORAD_CAT_ID":"48575","MEAN_MOTION_DDOT":"0.0000000000000","PERIAPSIS":"546.143","RA_OF_ASC_NODE":"344.5548","ECCENTRICITY":"0.00015540","TLE_LINE1":"1 48575U 21041Y   22270.52130495  .00001405  00000-0  11320-3 0  9999","TLE_LINE2":"2 48575  53.0552 344.5548 0001554  67.5973 292.5180 15.06398067 76438"}];
